{
  "type": "FeatureCollection",
  "features": [
    {
      "type": "Feature",
      "properties": {
        "norad_id": 66489,
        "name": "STARLINK-35696",
        "group": "last-30-days",
        "lat": -10.343167907810027,
        "lon": -46.469351424829064,
        "alt_km": 415.5750102180782,
        "timestamp": "2025-12-13T05:42:56.154736+00:00",
        "meta_object_name": "STARLINK-35696",
        "meta_object_id": "2025-263E",
        "meta_epoch": "2025-12-12T00:00:04.999968",
        "meta_mean_motion": 15.50507447,
        "meta_eccentricity": 0.00017622,
        "meta_inclination": 43.0003,
        "meta_ra_of_asc_node": 129.4797,
        "meta_arg_of_pericenter": 268.2838,
        "meta_mean_anomaly": 207.4369,
        "meta_ephemeris_type": 0,
        "meta_classification_type": "U",
        "meta_norad_cat_id": 66489,
        "meta_element_set_no": 999,
        "meta_rev_at_epoch": 551,
        "meta_bstar": 0.0011909242,
        "meta_mean_motion_dot": 0.00069973,
        "meta_mean_motion_ddot": 0,
        "tle_line1": "1 66489U 25263E   25346.00005787  .00069973  00000+0  11909-2 0  9993",
        "tle_line2": "2 66489  43.0003 129.4797 0001762 268.2838 207.4369 15.50507447  5517"
      },
      "geometry": {
        "type": "Point",
        "coordinates": [
          -46.469351424829064,
          -10.343167907810027
        ]
      }
    },
    {
      "type": "Feature",
      "properties": {
        "norad_id": 66490,
        "name": "STARLINK-35693",
        "group": "last-30-days",
        "lat": 35.60889164232808,
        "lon": -107.80601551221794,
        "alt_km": 439.1272493151173,
        "timestamp": "2025-12-13T05:42:56.154749+00:00",
        "meta_object_name": "STARLINK-35693",
        "meta_object_id": "2025-263F",
        "meta_epoch": "2025-12-12T06:00:00.999648",
        "meta_mean_motion": 15.40620945,
        "meta_eccentricity": 0.00017436,
        "meta_inclination": 43.0004,
        "meta_ra_of_asc_node": 128.1115,
        "meta_arg_of_pericenter": 278.8622,
        "meta_mean_anomaly": 115.1228,
        "meta_ephemeris_type": 0,
        "meta_classification_type": "U",
        "meta_norad_cat_id": 66490,
        "meta_element_set_no": 999,
        "meta_rev_at_epoch": 555,
        "meta_bstar": 0.002466448,
        "meta_mean_motion_dot": 0.00103867,
        "meta_mean_motion_ddot": 0,
        "tle_line1": "1 66490U 25263F   25346.25001157  .00103867  00000+0  24664-2 0  9992",
        "tle_line2": "2 66490  43.0004 128.1115 0001743 278.8622 115.1228 15.40620945  5558"
      },
      "geometry": {
        "type": "Point",
        "coordinates": [
          -107.80601551221794,
          35.60889164232808
        ]
      }
    },
    {
      "type": "Feature",
      "properties": {
        "norad_id": 66491,
        "name": "STARLINK-35663",
        "group": "last-30-days",
        "lat": -14.130577010376971,
        "lon": -42.104809284858426,
        "alt_km": 416.79494784835697,
        "timestamp": "2025-12-13T05:42:56.154760+00:00",
        "meta_object_name": "STARLINK-35663",
        "meta_object_id": "2025-263G",
        "meta_epoch": "2025-12-12T00:00:04.999968",
        "meta_mean_motion": 15.50532857,
        "meta_eccentricity": 0.00017514,
        "meta_inclination": 43.0002,
        "meta_ra_of_asc_node": 129.4654,
        "meta_arg_of_pericenter": 320.8425,
        "meta_mean_anomaly": 160.4832,
        "meta_ephemeris_type": 0,
        "meta_classification_type": "U",
        "meta_norad_cat_id": 66491,
        "meta_element_set_no": 999,
        "meta_rev_at_epoch": 551,
        "meta_bstar": 0.001170411,
        "meta_mean_motion_dot": 0.00068814,
        "meta_mean_motion_ddot": 0,
        "tle_line1": "1 66491U 25263G   25346.00005787  .00068814  00000+0  11704-2 0  9992",
        "tle_line2": "2 66491  43.0002 129.4654 0001751 320.8425 160.4832 15.50532857  5512"
      },
      "geometry": {
        "type": "Point",
        "coordinates": [
          -42.104809284858426,
          -14.130577010376971
        ]
      }
    },
    {
      "type": "Feature",
      "properties": {
        "norad_id": 66492,
        "name": "STARLINK-35673",
        "group": "last-30-days",
        "lat": 42.646977728621444,
        "lon": -138.79090250539517,
        "alt_km": 437.9433096024868,
        "timestamp": "2025-12-13T05:42:56.154773+00:00",
        "meta_object_name": "STARLINK-35673",
        "meta_object_id": "2025-263H",
        "meta_epoch": "2025-12-12T06:00:00.999648",
        "meta_mean_motion": 15.40633135,
        "meta_eccentricity": 0.00014964,
        "meta_inclination": 43.0004,
        "meta_ra_of_asc_node": 128.1711,
        "meta_arg_of_pericenter": 268.7337,
        "meta_mean_anomaly": 100.347,
        "meta_ephemeris_type": 0,
        "meta_classification_type": "U",
        "meta_norad_cat_id": 66492,
        "meta_element_set_no": 999,
        "meta_rev_at_epoch": 555,
        "meta_bstar": 0.0021733882,
        "meta_mean_motion_dot": 0.00091375,
        "meta_mean_motion_ddot": 0,
        "tle_line1": "1 66492U 25263H   25346.25001157  .00091375  00000+0  21734-2 0  9999",
        "tle_line2": "2 66492  43.0004 128.1711 0001496 268.7337 100.3470 15.40633135  5558"
      },
      "geometry": {
        "type": "Point",
        "coordinates": [
          -138.79090250539517,
          42.646977728621444
        ]
      }
    },
    {
      "type": "Feature",
      "properties": {
        "norad_id": 66493,
        "name": "STARLINK-35597",
        "group": "last-30-days",
        "lat": -16.660571829280006,
        "lon": -39.056428603512884,
        "alt_km": 416.14444829901186,
        "timestamp": "2025-12-13T05:42:56.154784+00:00",
        "meta_object_name": "STARLINK-35597",
        "meta_object_id": "2025-263J",
        "meta_epoch": "2025-12-12T00:00:04.999968",
        "meta_mean_motion": 15.50514915,
        "meta_eccentricity": 0.00017368,
        "meta_inclination": 43.0003,
        "meta_ra_of_asc_node": 129.455,
        "meta_arg_of_pericenter": 274.9887,
        "meta_mean_anomaly": 210.3079,
        "meta_ephemeris_type": 0,
        "meta_classification_type": "U",
        "meta_norad_cat_id": 66493,
        "meta_element_set_no": 999,
        "meta_rev_at_epoch": 551,
        "meta_bstar": 0.0011712077,
        "meta_mean_motion_dot": 0.00068817,
        "meta_mean_motion_ddot": 0,
        "tle_line1": "1 66493U 25263J   25346.00005787  .00068817  00000+0  11712-2 0  9996",
        "tle_line2": "2 66493  43.0003 129.4550 0001736 274.9887 210.3079 15.50514915  5517"
      },
      "geometry": {
        "type": "Point",
        "coordinates": [
          -39.056428603512884,
          -16.660571829280006
        ]
      }
    },
    {
      "type": "Feature",
      "properties": {
        "norad_id": 66494,
        "name": "STARLINK-35689",
        "group": "last-30-days",
        "lat": -5.747441032046345,
        "lon": -51.545072101536206,
        "alt_km": 429.5437605019906,
        "timestamp": "2025-12-13T05:42:56.154795+00:00",
        "meta_object_name": "STARLINK-35689",
        "meta_object_id": "2025-263K",
        "meta_epoch": "2025-12-12T00:00:04.999968",
        "meta_mean_motion": 15.50772647,
        "meta_eccentricity": 9.158e-05,
        "meta_inclination": 43.0002,
        "meta_ra_of_asc_node": 129.4704,
        "meta_arg_of_pericenter": 269.0531,
        "meta_mean_anomaly": 210.4733,
        "meta_ephemeris_type": 0,
        "meta_classification_type": "U",
        "meta_norad_cat_id": 66494,
        "meta_element_set_no": 999,
        "meta_rev_at_epoch": 551,
        "meta_bstar": -0.037144127,
        "meta_mean_motion_dot": -0.01964096,
        "meta_mean_motion_ddot": 0,
        "tle_line1": "1 66494U 25263K   25346.00005787 -.01964096  00000+0 -37144-1 0  9990",
        "tle_line2": "2 66494  43.0002 129.4704 0000915 269.0531 210.4733 15.50772647  5513"
      },
      "geometry": {
        "type": "Point",
        "coordinates": [
          -51.545072101536206,
          -5.747441032046345
        ]
      }
    },
    {
      "type": "Feature",
      "properties": {
        "norad_id": 66495,
        "name": "STARLINK-35832",
        "group": "last-30-days",
        "lat": -17.889325387215155,
        "lon": -37.526643255711214,
        "alt_km": 416.5373345150674,
        "timestamp": "2025-12-13T05:42:56.154806+00:00",
        "meta_object_name": "STARLINK-35832",
        "meta_object_id": "2025-263L",
        "meta_epoch": "2025-12-12T00:00:04.999968",
        "meta_mean_motion": 15.50528078,
        "meta_eccentricity": 0.0001618,
        "meta_inclination": 43.0001,
        "meta_ra_of_asc_node": 129.4504,
        "meta_arg_of_pericenter": 288.52,
        "meta_mean_anomaly": 198.6964,
        "meta_ephemeris_type": 0,
        "meta_classification_type": "U",
        "meta_norad_cat_id": 66495,
        "meta_element_set_no": 999,
        "meta_rev_at_epoch": 551,
        "meta_bstar": 0.00096668704,
        "meta_mean_motion_dot": 0.00056678,
        "meta_mean_motion_ddot": 0,
        "tle_line1": "1 66495U 25263L   25346.00005787  .00056678  00000+0  96669-3 0  9995",
        "tle_line2": "2 66495  43.0001 129.4504 0001618 288.5200 198.6964 15.50528078  5511"
      },
      "geometry": {
        "type": "Point",
        "coordinates": [
          -37.526643255711214,
          -17.889325387215155
        ]
      }
    }
  ]
}